SWARM B                 
1 39451U 13067A   25024.88438163  .00007278  00000+0  30230-3 0  9997
2 39451  87.7510 136.1681 0002378  96.4154 263.7364 15.23665579605716
